ONEWEB-0578             
1 56067U 23043X   26160.23018690  .00000029  00000+0  38169-4 0  9991
2 56067  87.9260 245.5551 0002364 100.4878 259.6523 13.21824479157183
ONEWEB-0579             
1 56068U 23043Y   26160.29749336  .00000005  00000+0 -20026-4 0  9994
2 56068  87.9264 245.5384 0001729  98.7344 261.3985 13.21826286157206
ONEWEB-0581             
1 56069U 23043Z   26160.24656584  .00000030  00000+0  45291-4 0  9990
2 56069  87.9100 230.3610 0002270  84.7022 275.4368 13.16596046157911
ONEWEB-0609             
1 56070U 23043AA  26160.27141921  .00000216  00000+0  53955-3 0  9990
2 56070  87.9000 260.7888 0001967 103.1397 256.9953 13.15548898155394
ONEWEB-0613             
1 56071U 23043AB  26160.26903798  .00000178  00000+0  43831-3 0  9997
2 56071  87.9001 260.8016 0001682 103.9985 256.1333 13.15550008155395
ONEWEB-0630             
1 56072U 23043AC  26160.03610069  .00000137  00000+0  32913-3 0  9993
2 56072  87.9003 260.8191 0001712 102.9051 257.2271 13.15550356155354
ONEWEB-0632             
1 56073U 23043AD  26160.18348200  .00000166  00000+0  40676-3 0  9992
2 56073  87.9001 260.8078 0001939  95.0578 265.0774 13.15547909155371
ONEWEB-0633             
1 56074U 23043AE  26160.25318058  .00000171  00000+0  41971-3 0  9994
2 56074  87.9008 260.7688 0001673 111.4472 248.6837 13.15548844155361
ONEWEB-0634             
1 56075U 23043AF  26160.23893884 -.00000013  00000+0 -69641-4 0  9990
2 56075  87.9001 260.8128 0002231 106.7929 253.3446 13.15548035155350
ONEWEB-0635             
1 56076U 23043AG  26160.31023301 -.00000068  00000+0 -21411-3 0  9991
2 56076  87.9008 260.7603 0002015  93.0611 267.0750 13.15550335155391
ONEWEB-0636             
1 56077U 23043AH  26160.30232183 -.00000065  00000+0 -20564-3 0  9996
2 56077  87.9004 260.7687 0002035  94.6163 265.5199 13.15549181155376
ONEWEB-0637             
1 56078U 23043AJ  26160.29598615 -.00000075  00000+0 -23204-3 0  9995
2 56078  87.9002 260.7865 0002270  98.9863 261.1525 13.15548746155391
ONEWEB-0647             
1 56079U 23043AK  26160.29123484  .00000016  00000+0  80123-5 0  9992
2 56079  87.9003 260.7999 0001851  96.8087 263.3254 13.15548631155385
ONEWEB-0651             
1 56080U 23043AL  26160.28647856  .00000099  00000+0  22869-3 0  9999
2 56080  87.9000 260.7947 0002131  95.7191 264.4182 13.15549120156582
ONEWEB-0718             
1 56081U 23043AM  26160.28170741  .00000085  00000+0  19156-3 0  9994
2 56081  87.9001 260.7761 0002214 112.8949 247.2415 13.15550702155396
ONEWEB-0561             
1 56710U 23068A   26160.24321554 -.00000008  00000+0 -50806-4 0  9991
2 56710  87.9189 276.0264 0001834  87.9711 272.1632 13.20769310148456
ONEWEB-0668             
1 56711U 23068B   26160.22124873 -.00000075  00000+0 -22907-3 0  9999
2 56711  87.9101 230.3541 0002565 103.6288 256.5129 13.16593883150735
ONEWEB-0676             
1 56712U 23068C   26160.22914956 -.00000369  00000+0 -99926-3 0  9990
2 56712  87.9103 230.3585 0002166  89.3031 270.8348 13.16594015150650
ONEWEB-0677             
1 56713U 23068D   26160.30716954 -.00000005  00000+0 -43628-4 0  9994
2 56713  87.9191 276.0053 0002309  95.0509 265.0888 13.20769992148765
ONEWEB-0678             
1 56714U 23068E   26160.25002811 -.00000037  00000+0 -13340-3 0  9991
2 56714  87.9006 260.7739 0001656  98.8591 261.2727 13.15547834148244
ONEWEB-0679             
1 56715U 23068F   26160.18799846  .00000139  00000+0  32995-3 0  9993
2 56715  87.9103 230.3581 0002602  95.5953 264.5474 13.16595059150677
ONEWEB-0680             
1 56716U 23068G   26160.29916282 -.00000026  00000+0 -95646-4 0  9991
2 56716  87.9265 245.5396 0002598 102.8278 257.3146 13.21827878150056
ONEWEB-0681             
1 56717U 23068H   26160.27981689  .00000084  00000+0  17081-3 0  9991
2 56717  87.9257 245.5452 0002300  74.9729 285.1659 13.21826758150045
ONEWEB-0682             
1 56718U 23068J   26160.27380470  .00000217  00000+0  54140-3 0  9998
2 56718  87.9008 260.7699 0002491 103.6649 256.4759 13.15548704148419
ONEWEB-0683             
1 56719U 23068K   26160.29757189 -.00000061  00000+0 -19689-3 0  9994
2 56719  87.9012 260.7644 0002198 105.7336 254.4037 13.15548661148380
ONEWEB-0684             
1 56720U 23068L   26160.30548725 -.00000036  00000+0 -12922-3 0  9997
2 56720  87.9009 260.7535 0001027 139.6239 220.4968 13.15548269148217
ONEWEB-0686             
1 56721U 23068M   26160.22441833 -.00000091  00000+0 -27139-3 0  9998
2 56721  87.9091 230.3753 0002120 108.2378 251.8984 13.16594401150663
ONEWEB-0694             
1 56722U 23068N   26160.23074868 -.00000020  00000+0 -86566-4 0  9992
2 56722  87.9111 230.3368 0002535 102.8874 257.2541 13.16594289150720
ONEWEB-0696             
1 56723U 23068P   26160.18662757 -.00003896  00000+0 -10383-1 0  9992
2 56723  87.8999 260.8158 0001607  97.5474 262.5839 13.15568306148315
ONEWEB-0703             
1 56724U 23068Q   26160.27221654  .00000267  00000+0  67649-3 0  9996
2 56724  87.9000 260.7799 0001328  78.8749 281.2530 13.15548357148216
