OBJECT_NAME,OBJECT_ID,EPOCH,MEAN_MOTION,ECCENTRICITY,INCLINATION,RA_OF_ASC_NODE,ARG_OF_PERICENTER,MEAN_ANOMALY,EPHEMERIS_TYPE,CLASSIFICATION_TYPE,NORAD_CAT_ID,ELEMENT_SET_NO,REV_AT_EPOCH,BSTAR,MEAN_MOTION_DOT,MEAN_MOTION_DDOT
ONEWEB-0578,2023-043X,2026-06-09T05:31:28.148160,13.21824479,.00023641,87.9260,245.5551,100.4878,259.6523,0,U,56067,999,15718,.38169306E-4,.29E-6,0
ONEWEB-0579,2023-043Y,2026-06-09T07:08:23.426304,13.21826286,.00017297,87.9264,245.5384,98.7344,261.3985,0,U,56068,999,15720,-.20026301E-4,.5E-7,0
ONEWEB-0581,2023-043Z,2026-06-09T05:55:03.288576,13.16596046,.00022708,87.9100,230.3610,84.7022,275.4368,0,U,56069,999,15791,.45291025E-4,.3E-6,0
ONEWEB-0609,2023-043AA,2026-06-09T06:30:50.619744,13.15548898,.00019674,87.9000,260.7888,103.1397,256.9953,0,U,56070,999,15539,.53954508E-3,.216E-5,0
ONEWEB-0613,2023-043AB,2026-06-09T06:27:24.881472,13.15550008,.00016823,87.9001,260.8016,103.9985,256.1333,0,U,56071,999,15539,.43831001E-3,.178E-5,0
ONEWEB-0630,2023-043AC,2026-06-09T00:51:59.099616,13.15550356,.00017126,87.9003,260.8191,102.9051,257.2271,0,U,56072,999,15535,.3291286E-3,.137E-5,0
ONEWEB-0632,2023-043AD,2026-06-09T04:24:12.844800,13.15547909,.00019394,87.9001,260.8078,95.0578,265.0774,0,U,56073,999,15537,.40676315E-3,.166E-5,0
ONEWEB-0633,2023-043AE,2026-06-09T06:04:34.802112,13.15548844,.0001673,87.9008,260.7688,111.4472,248.6837,0,U,56074,999,15536,.41971281E-3,.171E-5,0
ONEWEB-0634,2023-043AF,2026-06-09T05:44:04.315776,13.15548035,.0002231,87.9001,260.8128,106.7929,253.3446,0,U,56075,999,15535,-.69641357E-4,-.13E-6,0
ONEWEB-0635,2023-043AG,2026-06-09T07:26:44.132064,13.15550335,.00020151,87.9008,260.7603,93.0611,267.0750,0,U,56076,999,15539,-.21411078E-3,-.68E-6,0
ONEWEB-0636,2023-043AH,2026-06-09T07:15:20.606112,13.15549181,.0002035,87.9004,260.7687,94.6163,265.5199,0,U,56077,999,15537,-.20563676E-3,-.65E-6,0
ONEWEB-0637,2023-043AJ,2026-06-09T07:06:13.203360,13.15548746,.00022705,87.9002,260.7865,98.9863,261.1525,0,U,56078,999,15539,-.23204072E-3,-.75E-6,0
ONEWEB-0647,2023-043AK,2026-06-09T06:59:22.690176,13.15548631,.00018511,87.9003,260.7999,96.8087,263.3254,0,U,56079,999,15538,.8012257E-5,.16E-6,0
ONEWEB-0651,2023-043AL,2026-06-09T06:52:31.747584,13.15549120,.00021319,87.9000,260.7947,95.7191,264.4182,0,U,56080,999,15658,.2286869E-3,.99E-6,0
ONEWEB-0718,2023-043AM,2026-06-09T06:45:39.520224,13.15550702,.00022141,87.9001,260.7761,112.8949,247.2415,0,U,56081,999,15539,.19156309E-3,.85E-6,0
ONEWEB-0561,2023-068A,2026-06-09T05:50:13.822656,13.20769310,.00018342,87.9189,276.0264,87.9711,272.1632,0,U,56710,999,14845,-.50805933E-4,-.8E-7,0
ONEWEB-0668,2023-068B,2026-06-09T05:18:35.890272,13.16593883,.00025655,87.9101,230.3541,103.6288,256.5129,0,U,56711,999,15073,-.22907194E-3,-.75E-6,0
ONEWEB-0676,2023-068C,2026-06-09T05:29:58.521984,13.16594015,.00021662,87.9103,230.3585,89.3031,270.8348,0,U,56712,999,15065,-.99926456E-3,-.369E-5,0
ONEWEB-0677,2023-068D,2026-06-09T07:22:19.448256,13.20769992,.0002309,87.9191,276.0053,95.0509,265.0888,0,U,56713,999,14876,-.43627911E-4,-.5E-7,0
ONEWEB-0678,2023-068E,2026-06-09T06:00:02.428704,13.15547834,.00016567,87.9006,260.7739,98.8591,261.2727,0,U,56714,999,14824,-.13339598E-3,-.37E-6,0
ONEWEB-0679,2023-068F,2026-06-09T04:30:43.066944,13.16595059,.00026025,87.9103,230.3581,95.5953,264.5474,0,U,56715,999,15067,.32995446E-3,.139E-5,0
ONEWEB-0680,2023-068G,2026-06-09T07:10:47.667648,13.21827878,.00025984,87.9265,245.5396,102.8278,257.3146,0,U,56716,999,15005,-.95646351E-4,-.26E-6,0
ONEWEB-0681,2023-068H,2026-06-09T06:42:56.179296,13.21826758,.00023008,87.9257,245.5452,74.9729,285.1659,0,U,56717,999,15004,.17080737E-3,.84E-6,0
ONEWEB-0682,2023-068J,2026-06-09T06:34:16.726080,13.15548704,.00024919,87.9008,260.7699,103.6649,256.4759,0,U,56718,999,14841,.54140179E-3,.217E-5,0
ONEWEB-0683,2023-068K,2026-06-09T07:08:30.211296,13.15548661,.00021982,87.9012,260.7644,105.7336,254.4037,0,U,56719,999,14838,-.19689453E-3,-.61E-6,0
ONEWEB-0684,2023-068L,2026-06-09T07:19:54.098400,13.15548269,.00010274,87.9009,260.7535,139.6239,220.4968,0,U,56720,999,14821,-.12922358E-3,-.36E-6,0
ONEWEB-0686,2023-068M,2026-06-09T05:23:09.743712,13.16594401,.00021206,87.9091,230.3753,108.2378,251.8984,0,U,56721,999,15066,-.2713914E-3,-.91E-6,0
ONEWEB-0694,2023-068N,2026-06-09T05:32:16.685952,13.16594289,.00025353,87.9111,230.3368,102.8874,257.2541,0,U,56722,999,15072,-.86566182E-4,-.2E-6,0
ONEWEB-0696,2023-068P,2026-06-09T04:28:44.622048,13.15568306,.00016073,87.8999,260.8158,97.5474,262.5839,0,U,56723,999,14831,-.10383444E-1,-.3896E-4,0
ONEWEB-0703,2023-068Q,2026-06-09T06:31:59.509056,13.15548357,.00013285,87.9000,260.7799,78.8749,281.2530,0,U,56724,999,14821,.67649304E-3,.267E-5,0
